{
    "links": {
        "self": "http://www.neowsapp.com/rest/v1/neo/3759347?api_key=iIulBulltgU6a56xZRHN4H3l9WmuAYTsLGpBGhQ2"
    },
    "id": "3759347",
    "neo_reference_id": "3759347",
    "name": "(2016 RT33)",
    "designation": "2016 RT33",
    "nasa_jpl_url": "http://ssd.jpl.nasa.gov/sbdb.cgi?sstr=3759347",
    "absolute_magnitude_h": 23.9,
    "estimated_diameter": {
        "kilometers": {
            "estimated_diameter_min": 0.04411182,
            "estimated_diameter_max": 0.0986370281
        },
        "meters": {
            "estimated_diameter_min": 44.1118199997,
            "estimated_diameter_max": 98.6370281305
        },
        "miles": {
            "estimated_diameter_min": 0.0274098057,
            "estimated_diameter_max": 0.0612901888
        },
        "feet": {
            "estimated_diameter_min": 144.7238235278,
            "estimated_diameter_max": 323.6123073718
        }
    },
    "is_potentially_hazardous_asteroid": false,
    "close_approach_data": [
        {
            "close_approach_date": "2016-09-18",
            "close_approach_date_full": "2016-Sep-18 22:41",
            "epoch_date_close_approach": 1474238460000,
            "relative_velocity": {
                "kilometers_per_second": "13.5685126582",
                "kilometers_per_hour": "48846.6455695171",
                "miles_per_hour": "30351.4059651258"
            },
            "miss_distance": {
                "astronomical": "0.0617214867",
                "lunar": "24.0096583263",
                "kilometers": "9233402.943553329",
                "miles": "5737370.5437167802"
            },
            "orbiting_body": "Earth"
        }
    ],
    "orbital_data": {
        "orbit_id": "5",
        "orbit_determination_date": "2018-02-10 07:08:12",
        "first_observation_date": "2016-09-10",
        "last_observation_date": "2016-10-01",
        "data_arc_in_days": 21,
        "observations_used": 42,
        "orbit_uncertainty": "8",
        "minimum_orbit_intersection": ".0512234",
        "jupiter_tisserand_invariant": "2.994",
        "epoch_osculation": "2457647.5",
        "eccentricity": ".6113785808012676",
        "semi_major_axis": "2.710685727834167",
        "inclination": "19.85448162759554",
        "ascending_node_longitude": "178.9058718015181",
        "orbital_period": "1630.111009578042",
        "perihelion_distance": "1.053430534552663",
        "perihelion_argument": "185.136713776456",
        "aphelion_distance": "4.367940921115672",
        "perihelion_time": "2457655.624948167842",
        "mean_anomaly": "358.2056551221133",
        "mean_motion": ".2208438553477329",
        "equinox": "J2000",
        "orbit_class": {
            "orbit_class_type": "AMO",
            "orbit_class_description": "Near-Earth asteroid orbits similar to that of 1221 Amor",
            "orbit_class_range": "1.017 AU < q (perihelion) < 1.3 AU"
        }
    },
    "is_sentry_object": false
}